FLOCK 4H-33             
1 66736U 25276BY  26189.45481137  .00003912  00000+0  17883-3 0  9993
2 66736  97.4211 263.0416 0002137 179.7814 180.3423 15.21136931 33678
FLOCK 4H-34             
1 66737U 25276BZ  26189.50601009  .00004869  00000+0  22413-3 0  9999
2 66737  97.4226 263.0175 0001856 190.0363 170.0835 15.20779015 32924
FLOCK 4H-35             
1 66738U 25276CA  26189.48226822  .00004354  00000+0  20006-3 0  9998
2 66738  97.4188 262.9342 0001991 167.4795 192.6490 15.20896278 32965
FLOCK 4H-36             
1 66739U 25276CB  26189.45397080  .00003460  00000+0  16075-3 0  9999
2 66739  97.4237 262.9595 0001767 207.9780 152.1361 15.20662415 33666
