{"fetched_at":"2026-07-08T17:59:26.812Z","source":"https://celestrak.org/NORAD/elements/gp.php?GROUP=planet&FORMAT=JSON","constellation":"superdove","records":[{"OBJECT_NAME":"FLOCK 4H-33","OBJECT_ID":"2025-276BY","EPOCH":"2026-07-08T10:54:55.702368","CLASSIFICATION_TYPE":"U","MEAN_MOTION":15.21136931,"ECCENTRICITY":0.0002137,"INCLINATION":97.4211,"RA_OF_ASC_NODE":263.0416,"ARG_OF_PERICENTER":179.7814,"MEAN_ANOMALY":180.3423,"EPHEMERIS_TYPE":0,"NORAD_CAT_ID":66736,"ELEMENT_SET_NO":999,"REV_AT_EPOCH":3367,"BSTAR":0.00017883,"MEAN_MOTION_DOT":0.00003912,"MEAN_MOTION_DDOT":0},{"OBJECT_NAME":"FLOCK 4H-34","OBJECT_ID":"2025-276BZ","EPOCH":"2026-07-08T12:08:39.271776","CLASSIFICATION_TYPE":"U","MEAN_MOTION":15.20779015,"ECCENTRICITY":0.0001856,"INCLINATION":97.4226,"RA_OF_ASC_NODE":263.0175,"ARG_OF_PERICENTER":190.0363,"MEAN_ANOMALY":170.0835,"EPHEMERIS_TYPE":0,"NORAD_CAT_ID":66737,"ELEMENT_SET_NO":999,"REV_AT_EPOCH":3292,"BSTAR":0.00022413,"MEAN_MOTION_DOT":0.00004869,"MEAN_MOTION_DDOT":0},{"OBJECT_NAME":"FLOCK 4H-35","OBJECT_ID":"2025-276CA","EPOCH":"2026-07-08T11:34:27.974208","CLASSIFICATION_TYPE":"U","MEAN_MOTION":15.20896278,"ECCENTRICITY":0.0001991,"INCLINATION":97.4188,"RA_OF_ASC_NODE":262.9342,"ARG_OF_PERICENTER":167.4795,"MEAN_ANOMALY":192.649,"EPHEMERIS_TYPE":0,"NORAD_CAT_ID":66738,"ELEMENT_SET_NO":999,"REV_AT_EPOCH":3296,"BSTAR":0.00020006,"MEAN_MOTION_DOT":0.00004354,"MEAN_MOTION_DDOT":0},{"OBJECT_NAME":"FLOCK 4H-36","OBJECT_ID":"2025-276CB","EPOCH":"2026-07-08T10:53:43.077120","CLASSIFICATION_TYPE":"U","MEAN_MOTION":15.20662415,"ECCENTRICITY":0.0001767,"INCLINATION":97.4237,"RA_OF_ASC_NODE":262.9595,"ARG_OF_PERICENTER":207.978,"MEAN_ANOMALY":152.1361,"EPHEMERIS_TYPE":0,"NORAD_CAT_ID":66739,"ELEMENT_SET_NO":999,"REV_AT_EPOCH":3366,"BSTAR":0.00016075,"MEAN_MOTION_DOT":0.0000346,"MEAN_MOTION_DDOT":0}]}
